OBJECT_NAME,OBJECT_ID,EPOCH,MEAN_MOTION,ECCENTRICITY,INCLINATION,RA_OF_ASC_NODE,ARG_OF_PERICENTER,MEAN_ANOMALY,EPHEMERIS_TYPE,CLASSIFICATION_TYPE,NORAD_CAT_ID,ELEMENT_SET_NO,REV_AT_EPOCH,BSTAR,MEAN_MOTION_DOT,MEAN_MOTION_DDOT
BEIDOU-3 IGSO-3,2019-073A,2026-05-16T19:27:04.075776,1.00246251,.0042953,54.8566,281.2355,189.4588,170.3676,0,U,44709,999,2414,0,-.217E-5,0
TIBA-1,2019-080A,2026-06-05T06:50:25.752192,1.00273372,.00022398,0.0562,15.4936,71.2495,305.0751,0,U,44800,999,2393,0,.168E-5,0
INMARSAT GX5,2019-080B,2026-06-04T17:36:55.478880,1.00275786,.00022285,0.0361,356.0593,75.6456,96.7714,0,U,44801,999,666,0,.88E-6,0
JCSAT-18 (KACIFIC 1),2019-091A,2026-06-04T14:20:38.497920,1.00270519,.00001669,0.0154,247.0670,277.4292,93.7170,0,U,44868,999,2388,0,-.189E-5,0
ELEKTRO-L 3,2019-095A,2026-06-05T03:36:40.193280,1.00272865,.00015193,0.2264,81.1501,347.4552,315.0917,0,U,44903,999,2358,0,-.84E-6,0
SHIJIAN-20 (SJ-20),2019-097A,2026-06-05T02:48:38.735136,1.00273812,.0013784,4.8878,75.2106,51.8397,213.4147,0,U,44910,999,2357,0,.147E-5,0
TJS-5,2020-002A,2026-06-05T00:20:19.777056,1.00272080,.0007652,0.0413,282.2205,124.3703,319.4495,0,U,44978,999,2358,0,-.33E-5,0
GSAT-30,2020-005A,2026-06-05T03:38:40.002432,1.00270567,.00036006,0.0476,109.6004,332.4369,309.2264,0,U,45026,999,2338,0,-.152E-5,0
EUTELSAT KONNECT,2020-005B,2026-06-04T15:18:27.808704,1.00271610,.00008963,0.0728,98.8400,126.3177,264.7734,0,U,45027,999,2421,0,.62E-6,0
JCSAT-17,2020-013A,2026-06-05T00:28:26.499360,1.00272025,.00030135,5.3923,356.7469,74.8877,324.9480,0,U,45245,999,2311,0,-.307E-5,0
GEO-KOMPSAT-2B,2020-013B,2026-06-05T05:34:13.864224,1.00269011,.00003636,0.0377,192.7882,111.8485,160.8410,0,U,45246,999,2316,0,-.332E-5,0
BEIDOU-3 G2,2020-017A,2026-06-04T19:04:30.777888,1.00270930,.00028887,2.8392,47.1642,25.2494,186.9685,0,U,45344,999,2313,0,-.129E-5,0
AEHF-6 (USA 298),2020-022B,2026-06-05T05:36:58.601376,1.00277068,.00431631,2.5750,300.9794,17.6524,156.9541,0,U,45465,999,2289,0,-.286E-5,0
BEIDOU-3 G3,2020-040A,2026-06-05T02:03:58.710816,1.00274218,.00030699,2.4176,67.4216,336.0146,351.6506,0,U,45807,999,2194,0,-.342E-5,0
APSTAR-6D,2020-045A,2026-06-04T12:29:18.753216,1.00269431,.0001778,0.0477,81.3890,31.0241,101.9302,0,U,45863,999,2173,0,-.306E-5,0
KOREASAT 116,2020-048A,2026-06-05T05:30:41.799744,1.00268776,.00013189,0.0175,296.9354,174.6187,340.9731,0,U,45920,999,2152,0,-.35E-5,0
EXPRESS 103,2020-053A,2026-06-04T10:35:53.342304,1.00272180,.00003394,0.0136,291.6750,108.4256,108.2692,0,U,45985,999,2152,0,-.269E-5,0
EXPRESS 80,2020-053B,2026-06-04T01:50:00.355200,1.00267793,.00018126,0.0187,300.4990,199.0641,220.4553,0,U,45986,999,2150,0,-.123E-5,0
BSAT-4B,2020-056A,2026-06-05T00:21:04.705056,1.00271435,.000409,0.0505,149.3059,321.0869,258.1667,0,U,46112,999,2126,0,-.338E-5,0
MEV-2,2020-056B,2026-06-05T06:40:04.244160,1.00268681,.00000755,0.0116,323.8027,24.1816,4.7423,0,U,46113,999,8042,0,.1E-7,0
GALAXY 30 (G-30),2020-056C,2026-06-05T06:04:41.541312,1.00272482,.0002402,0.0188,330.4888,100.7485,148.6097,0,U,46114,999,2117,0,.49E-6,0
GAOFEN-13 01,2020-071A,2026-06-05T07:13:51.684960,1.00265604,.00418105,0.4900,84.9599,122.7413,272.6164,0,U,46610,999,2080,0,-.35E-5,0
TIANTONG-1 2,2020-082A,2026-06-05T07:15:58.982400,1.00270039,.00015805,0.8064,325.7681,105.7135,56.2025,0,U,46916,999,2053,0,-.344E-5,0
LUCAS (JDRS-1),2020-089A,2026-06-05T04:17:21.789888,1.00269386,.0002814,0.0366,272.9713,147.6278,348.1362,0,U,47202,999,2029,0,-.223E-5,0
SXM-7,2020-096A,2026-06-04T14:52:09.457824,1.00269581,.00040974,0.0308,101.3496,23.0140,266.5855,0,U,47240,999,731,0,-.193E-5,0
CMS-01,2020-099A,2026-06-05T01:56:06.965088,1.00271057,.00034875,0.0687,102.0615,183.3357,80.1492,0,U,47256,999,2007,0,-.152E-5,0
TURKSAT 5A,2021-001A,2026-06-04T23:58:29.369856,1.00271100,.00002913,0.0177,51.4101,64.5402,168.0499,0,U,47306,999,1984,0,.166E-5,0
TIANTONG-1 3,2021-003A,2026-06-05T05:07:38.604000,1.00273187,.00035293,1.7658,338.5704,100.7155,332.8154,0,U,47321,999,1984,0,-.144E-5,0
TJS-6,2021-010A,2026-06-02T12:47:20.190048,1.00272435,.00026319,0.5630,87.7253,337.8803,195.7324,0,U,47613,999,1966,0,.55E-6,0
SBIRS GEO-5 (USA 315),2021-042A,2026-06-05T02:52:21.775872,1.00271422,.00017447,5.1194,329.0282,114.9813,306.4522,0,U,48618,999,1865,0,-.259E-5,0
FENGYUN 4B,2021-047A,2026-06-05T00:19:34.849056,1.00266497,.00051932,0.1227,75.7030,290.2874,357.0065,0,U,48808,999,1844,0,-.317E-5,0
SXM-8,2021-049A,2026-06-04T13:09:25.878816,1.00270817,.00049699,0.0214,18.4347,17.8581,328.9222,0,U,48838,999,1845,0,-.193E-5,0
