BEIDOU-3 IGSO-3         
1 44709U 19073A   26136.81046384 -.00000217  00000+0  00000+0 0  9995
2 44709  54.8566 281.2355 0042953 189.4588 170.3676  1.00246251 24144
TIBA-1                  
1 44800U 19080A   26156.28502028  .00000168  00000+0  00000+0 0  9994
2 44800   0.0562  15.4936 0002239  71.2495 305.0751  1.00273372 23936
INMARSAT GX5            
1 44801U 19080B   26155.73397545  .00000088  00000+0  00000+0 0  9991
2 44801   0.0361 356.0593 0002228  75.6456  96.7714  1.00275786  6665
JCSAT-18 (KACIFIC 1)    
1 44868U 19091A   26155.59766780 -.00000189  00000+0  00000+0 0  9994
2 44868   0.0154 247.0670 0000166 277.4292  93.7170  1.00270519 23887
ELEKTRO-L 3             
1 44903U 19095A   26156.15046520 -.00000084  00000+0  00000+0 0  9998
2 44903   0.2264  81.1501 0001519 347.4552 315.0917  1.00272865 23583
SHIJIAN-20 (SJ-20)      
1 44910U 19097A   26156.11711499  .00000147  00000+0  00000+0 0  9997
2 44910   4.8878  75.2106 0013784  51.8397 213.4147  1.00273812 23575
TJS-5                   
1 44978U 20002A   26156.01411779 -.00000330  00000+0  00000+0 0  9991
2 44978   0.0413 282.2205 0007652 124.3703 319.4495  1.00272080 23586
GSAT-30                 
1 45026U 20005A   26156.15185188 -.00000152  00000+0  00000+0 0  9998
2 45026   0.0476 109.6004 0003600 332.4369 309.2264  1.00270567 23385
EUTELSAT KONNECT        
1 45027U 20005B   26155.63782186  .00000062  00000+0  00000+0 0  9991
2 45027   0.0728  98.8400 0000896 126.3177 264.7734  1.00271610 24216
JCSAT-17                
1 45245U 20013A   26156.01975115 -.00000307  00000+0  00000+0 0  9994
2 45245   5.3923 356.7469 0003013  74.8877 324.9480  1.00272025 23118
GEO-KOMPSAT-2B          
1 45246U 20013B   26156.23210491 -.00000332  00000+0  00000+0 0  9996
2 45246   0.0377 192.7882 0000363 111.8485 160.8410  1.00269011 23169
BEIDOU-3 G2             
1 45344U 20017A   26155.79480067 -.00000129  00000+0  00000+0 0  9991
2 45344   2.8392  47.1642 0002888  25.2494 186.9685  1.00270930 23136
AEHF-6 (USA 298)        
1 45465U 20022B   26156.23401159 -.00000286  00000+0  00000+0 0  9990
2 45465   2.5750 300.9794 0043163  17.6524 156.9541  1.00277068 22892
BEIDOU-3 G3             
1 45807U 20040A   26156.08609619 -.00000342  00000+0  00000+0 0  9997
2 45807   2.4176  67.4216 0003069 336.0146 351.6506  1.00274218 21940
APSTAR-6D               
1 45863U 20045A   26155.52035594 -.00000306  00000+0  00000+0 0  9997
2 45863   0.0477  81.3890 0001778  31.0241 101.9302  1.00269431 21734
KOREASAT 116            
1 45920U 20048A   26156.22965046 -.00000350  00000+0  00000+0 0  9995
2 45920   0.0175 296.9354 0001318 174.6187 340.9731  1.00268776 21524
EXPRESS 103             
1 45985U 20053A   26155.44158961 -.00000269  00000+0  00000+0 0  9994
2 45985   0.0136 291.6750 0000339 108.4256 108.2692  1.00272180 21523
EXPRESS 80              
1 45986U 20053B   26155.07639300 -.00000123  00000+0  00000+0 0  9994
2 45986   0.0187 300.4990 0001812 199.0641 220.4553  1.00267793 21501
BSAT-4B                 
1 46112U 20056A   26156.01463779 -.00000338  00000+0  00000+0 0  9997
2 46112   0.0505 149.3059 0004090 321.0869 258.1667  1.00271435 21268
MEV-2                   
1 46113U 20056B   26156.27782690  .00000001  00000+0  00000+0 0  9998
2 46113   0.0116 323.8027 0000075  24.1816   4.7423  1.00268681 80420
GALAXY 30 (G-30)        
1 46114U 20056C   26156.25325858  .00000049  00000+0  00000+0 0  9998
2 46114   0.0188 330.4888 0002402 100.7485 148.6097  1.00272482 21174
GAOFEN-13 01            
1 46610U 20071A   26156.30129265 -.00000350  00000+0  00000+0 0  9992
2 46610   0.4900  84.9599 0041810 122.7413 272.6164  1.00265604 20802
TIANTONG-1 2            
1 46916U 20082A   26156.30276600 -.00000344  00000+0  00000+0 0  9992
2 46916   0.8064 325.7681 0001580 105.7135  56.2025  1.00270039 20536
LUCAS (JDRS-1)          
1 47202U 20089A   26156.17872442 -.00000223  00000+0  00000+0 0  9995
2 47202   0.0366 272.9713 0002814 147.6278 348.1362  1.00269386 20298
SXM-7                   
1 47240U 20096A   26155.61955391 -.00000193  00000+0  00000+0 0  9994
2 47240   0.0308 101.3496 0004097  23.0140 266.5855  1.00269581  7314
CMS-01                  
1 47256U 20099A   26156.08063617 -.00000152  00000+0  00000+0 0  9992
2 47256   0.0687 102.0615 0003487 183.3357  80.1492  1.00271057 20070
TURKSAT 5A              
1 47306U 21001A   26155.99895104  .00000166  00000+0  00000+0 0  9999
2 47306   0.0177  51.4101 0000291  64.5402 168.0499  1.00271100 19843
TIANTONG-1 3            
1 47321U 21003A   26156.21364125 -.00000144  00000+0  00000+0 0  9995
2 47321   1.7658 338.5704 0003529 100.7155 332.8154  1.00273187 19841
TJS-6                   
1 47613U 21010A   26153.53287257  .00000055  00000+0  00000+0 0  9999
2 47613   0.5630  87.7253 0002631 337.8803 195.7324  1.00272435 19660
SBIRS GEO-5 (USA 315)   
1 48618U 21042A   26156.11969648 -.00000259  00000+0  00000+0 0  9995
2 48618   5.1194 329.0282 0001744 114.9813 306.4522  1.00271422 18659
FENGYUN 4B              
1 48808U 21047A   26156.01359779 -.00000317  00000+0  00000+0 0  9993
2 48808   0.1227  75.7030 0005193 290.2874 357.0065  1.00266497 18442
SXM-8                   
1 48838U 21049A   26155.54821619 -.00000193  00000+0  00000+0 0  9994
2 48838   0.0214  18.4347 0004969  17.8581 328.9222  1.00270817 18457
